CCSDS_OMM_VERS,COMMENT,CREATION_DATE,ORIGINATOR,OBJECT_NAME,OBJECT_ID,CENTER_NAME,REF_FRAME,TIME_SYSTEM,MEAN_ELEMENT_THEORY,EPOCH,MEAN_MOTION,ECCENTRICITY,INCLINATION,RA_OF_ASC_NODE,ARG_OF_PERICENTER,MEAN_ANOMALY,EPHEMERIS_TYPE,CLASSIFICATION_TYPE,NORAD_CAT_ID,ELEMENT_SET_NO,REV_AT_EPOCH,BSTAR,MEAN_MOTION_DOT,MEAN_MOTION_DDOT,SEMIMAJOR_AXIS,PERIOD,APOAPSIS,PERIAPSIS,OBJECT_TYPE,RCS_SIZE,COUNTRY_CODE,LAUNCH_DATE,SITE,DECAY_DATE,FILE,GP_ID,TLE_LINE0,TLE_LINE1,TLE_LINE2
"2.0","GENERATED VIA SPACE-TRACK.ORG API","2013-09-10T01:23:39","18 SPCS","PAYLOAD C","2013-037C","EARTH","TEME","UTC","SGP4","2013-09-10T01:34:25.432896","14.94987297","0.00323730","97.6954","269.9966","224.4052","135.4592","0","U","39210","999","771","0.00008093500000","0.00000835","0.0000000000000","6960.553","96.321","604.952","559.885","PAYLOAD","LARGE","PRC","2013-07-19","TSC","","1544890","93795915","0 PAYLOAD C","1 39210U 13037C   13253.06557214  .00000835  00000-0  80935-4 0  9998","2 39210 097.6954 269.9966 0032373 224.4052 135.4592 14.94987297  7715"
"2.0","GENERATED VIA SPACE-TRACK.ORG API","2013-09-10T00:23:22","18 SPCS","PAYLOAD A","2013-037A","EARTH","TEME","UTC","SGP4","2013-09-10T02:22:37.875071","14.68170116","0.00081340","98.0552","269.9591","194.8233","165.2752","0","U","39208","999","765","0.00002826200000","0.00000114","0.0000000000000","7045.057","98.081","672.652","661.191","PAYLOAD","LARGE","PRC","2013-07-19","TSC","","1544812","93794004","0 PAYLOAD A","1 39208U 13037A   13253.09904948  .00000114  00000-0  28262-4 0  9993","2 39208 098.0552 269.9591 0008134 194.8233 165.2752 14.68170116  7651"
"2.0","GENERATED VIA SPACE-TRACK.ORG API","2013-09-10T08:18:48","18 SPCS","PAYLOAD A","2013-037A","EARTH","TEME","UTC","SGP4","2013-09-10T08:55:11.504351","14.68170334","0.00081270","98.0553","270.2277","193.9375","166.1613","0","U","39208","999","769","0.00003076200000","0.00000129","0.0000000000000","7045.056","98.081","672.647","661.196","PAYLOAD","LARGE","PRC","2013-07-19","TSC","","1544929","93796320","0 PAYLOAD A","1 39208U 13037A   13253.37166093  .00000129  00000-0  30762-4 0  9999","2 39208 098.0553 270.2277 0008127 193.9375 166.1613 14.68170334  7699"
"2.0","GENERATED VIA SPACE-TRACK.ORG API","2013-09-10T10:15:58","18 SPCS","PAYLOAD C","2013-037C","EARTH","TEME","UTC","SGP4","2013-09-10T09:36:19.994688","14.94987799","0.00323600","97.6957","270.3249","223.2722","136.5958","0","U","39210","999","776","0.00007865700000","0.00000809","0.0000000000000","6960.552","96.321","604.941","559.892","PAYLOAD","LARGE","PRC","2013-07-19","TSC","","1545062","93798993","0 PAYLOAD C","1 39210U 13037C   13253.40023142  .00000809  00000-0  78657-4 0  9993","2 39210 097.6957 270.3249 0032360 223.2722 136.5958 14.94987799  7765"
"2.0","GENERATED VIA SPACE-TRACK.ORG API","2013-09-10T10:09:56","18 SPCS","PAYLOAD B","2013-037B","EARTH","TEME","UTC","SGP4","2013-09-10T09:43:18.704639","14.67234451","0.00044390","98.0548","270.1810","175.7468","184.3785","0","U","39209","999","768","0.00005426300000","0.00000258","0.0000000000000","7048.052","98.143","673.045","666.788","PAYLOAD","LARGE","PRC","2013-07-19","TSC","","1545059","93798939","0 PAYLOAD B","1 39209U 13037B   13253.40507760  .00000258  00000-0  54263-4 0  9999","2 39209 098.0548 270.1810 0004439 175.7468 184.3785 14.67234451  7680"
"2.0","GENERATED VIA SPACE-TRACK.ORG API","2013-09-10T17:23:30","18 SPCS","PAYLOAD C","2013-037C","EARTH","TEME","UTC","SGP4","2013-09-10T17:38:14.592767","14.94987819","0.00323780","97.6956","270.6532","222.0925","137.7799","0","U","39210","999","781","0.00007016100000","0.00000716","0.0000000000000","6960.552","96.321","604.953","559.880","PAYLOAD","LARGE","PRC","2013-07-19","TSC","","1545260","93801505","0 PAYLOAD C","1 39210U 13037C   13253.73489112  .00000716  00000-0  70161-4 0  9991","2 39210 097.6956 270.6532 0032378 222.0925 137.7799 14.94987819  7818"
"2.0","GENERATED VIA SPACE-TRACK.ORG API","2013-09-10T17:21:39","18 SPCS","PAYLOAD B","2013-037B","EARTH","TEME","UTC","SGP4","2013-09-10T17:54:19.538208","14.67233985","0.00044820","98.0547","270.5162","174.8265","185.2971","0","U","39209","999","773","0.00003760100000","0.00000164","0.0000000000000","7048.053","98.143","673.077","666.759","PAYLOAD","LARGE","PRC","2013-07-19","TSC","","1545257","93801478","0 PAYLOAD B","1 39209U 13037B   13253.74605947  .00000164  00000-0  37601-4 0  9995","2 39209 098.0547 270.5162 0004482 174.8265 185.2971 14.67233985  7730"
"2.0","GENERATED VIA SPACE-TRACK.ORG API","2013-09-10T16:26:35","18 SPCS","PAYLOAD A","2013-037A","EARTH","TEME","UTC","SGP4","2013-09-10T18:44:02.025599","14.68169539","0.00081340","98.0551","270.6302","192.3734","167.7253","0","U","39208","999","775","0.00000459400000","-0.00000022","0.0000000000000","7045.059","98.081","672.654","661.193","PAYLOAD","LARGE","PRC","2013-07-19","TSC","","1545180","93799748","0 PAYLOAD A","1 39208U 13037A   13253.78057900 -.00000022  00000-0  45940-5 0  9998","2 39208 098.0551 270.6302 0008134 192.3734 167.7253 14.68169539  7759"
"2.0","GENERATED VIA SPACE-TRACK.ORG API","2013-09-10T19:13:09","18 SPCS","PAYLOAD A","2013-037A","EARTH","TEME","UTC","SGP4","2013-09-10T23:38:27.278016","14.68169837","0.00081390","98.0553","270.8316","191.5857","168.5157","0","U","39208","999","778","0.00001144300000","0.00000017","0.0000000000000","7045.058","98.081","672.657","661.189","PAYLOAD","LARGE","PRC","2013-07-19","TSC","","1545282","93801688","0 PAYLOAD A","1 39208U 13037A   13253.98503794  .00000017  00000-0  11443-4 0  9990","2 39208 098.0553 270.8316 0008139 191.5857 168.5157 14.68169837  7786"
"2.0","GENERATED VIA SPACE-TRACK.ORG API","2013-09-10T19:22:27","18 SPCS","PAYLOAD C","2013-037C","EARTH","TEME","UTC","SGP4","2013-09-11T00:03:46.231488","14.94989065","0.00322900","97.6957","270.9158","221.0588","138.8196","0","U","39210","999","785","0.00008360300000","0.00000864","0.0000000000000","6960.548","96.321","604.888","559.937","PAYLOAD","LARGE","PRC","2013-07-19","TSC","","1545284","93801690","0 PAYLOAD C","1 39210U 13037C   13254.00261842  .00000864  00000-0  83603-4 0  9999","2 39210 097.6957 270.9158 0032290 221.0588 138.8196 14.94989065  7855"
"2.0","GENERATED VIA SPACE-TRACK.ORG API","2013-09-10T19:19:27","18 SPCS","PAYLOAD B","2013-037B","EARTH","TEME","UTC","SGP4","2013-09-11T00:27:08.229599","14.67234120","0.00044630","98.0548","270.7840","173.3440","186.7824","0","U","39209","999","777","0.00003549600000","0.00000152","0.0000000000000","7048.053","98.143","673.063","666.772","PAYLOAD","LARGE","PRC","2013-07-19","TSC","","1545283","93801689","0 PAYLOAD B","1 39209U 13037B   13254.01884525  .00000152  00000-0  35496-4 0  9994","2 39209 098.0548 270.7840 0004463 173.3440 186.7824 14.67234120  7773"
"2.0","GENERATED VIA SPACE-TRACK.ORG API","2013-09-11T01:53:56","18 SPCS","PAYLOAD C","2013-037C","EARTH","TEME","UTC","SGP4","2013-09-11T03:16:32.063808","14.94989190","0.00323040","97.6957","271.0472","220.6492","139.2319","0","U","39210","999","787","0.00008025600000","0.00000827","0.0000000000000","6960.547","96.321","604.898","559.927","PAYLOAD","LARGE","PRC","2013-07-19","TSC","","1545507","93804156","0 PAYLOAD C","1 39210U 13037C   13254.13648222  .00000827  00000-0  80256-4 0  9994","2 39210 097.6957 271.0472 0032304 220.6492 139.2319 14.94989190  7874"
"2.0","GENERATED VIA SPACE-TRACK.ORG API","2013-09-11T01:53:39","18 SPCS","PAYLOAD B","2013-037B","EARTH","TEME","UTC","SGP4","2013-09-11T03:43:32.564064","14.67234221","0.00045010","98.0546","270.9182","173.3831","186.7446","0","U","39209","999","779","0.00003542300000","0.00000152","0.0000000000000","7048.052","98.143","673.090","666.745","PAYLOAD","LARGE","PRC","2013-07-19","TSC","","1545506","93804125","0 PAYLOAD B","1 39209U 13037B   13254.15523801  .00000152  00000-0  35423-4 0  9996","2 39209 098.0546 270.9182 0004501 173.3831 186.7446 14.67234221  7793"
"2.0","GENERATED VIA SPACE-TRACK.ORG API","2013-09-11T00:16:03","18 SPCS","PAYLOAD A","2013-037A","EARTH","TEME","UTC","SGP4","2013-09-11T04:32:52.535615","14.68170157","0.00081880","98.0549","271.0330","191.3353","168.7688","0","U","39208","999","781","0.00002259000000","0.00000082","0.0000000000000","7045.057","98.081","672.690","661.153","PAYLOAD","LARGE","PRC","2013-07-19","TSC","","1545412","93801955","0 PAYLOAD A","1 39208U 13037A   13254.18949694  .00000082  00000-0  22590-4 0  9993","2 39208 098.0549 271.0330 0008188 191.3353 168.7688 14.68170157  7815"
"2.0","GENERATED VIA SPACE-TRACK.ORG API","2013-09-11T08:30:38","18 SPCS","PAYLOAD A","2013-037A","EARTH","TEME","UTC","SGP4","2013-09-11T11:05:26.163168","14.68170419","0.00081690","98.0550","271.3013","190.4991","169.6051","0","U","39208","999","785","0.00002766200000","0.00000111","0.0000000000000","7045.056","98.081","672.676","661.166","PAYLOAD","LARGE","PRC","2013-07-19","TSC","","1545555","93804854","0 PAYLOAD A","1 39208U 13037A   13254.46210837  .00000111  00000-0  27662-4 0  9992","2 39208 098.0550 271.3013 0008169 190.4991 169.6051 14.68170419  7854"
"2.0","GENERATED VIA SPACE-TRACK.ORG API","2013-09-11T09:39:54","18 SPCS","PAYLOAD C","2013-037C","EARTH","TEME","UTC","SGP4","2013-09-11T11:18:26.596224","14.94990262","0.00323240","97.6959","271.3758","219.4699","140.4182","0","U","39210","999","792","0.00008682100000","0.00000900","0.0000000000000","6960.544","96.321","604.908","559.910","PAYLOAD","LARGE","PRC","2013-07-19","TSC","","1545643","93806952","0 PAYLOAD C","1 39210U 13037C   13254.47114116  .00000900  00000-0  86821-4 0  9997","2 39210 097.6959 271.3758 0032324 219.4699 140.4182 14.94990262  7923"
